[{"OBJECT_NAME":"LEMUR-2-JIN-LUEN","OBJECT_ID":"2018-014C","EPOCH":"2026-03-09T17:26:30.692832","MEAN_MOTION":15.79211945,"ECCENTRICITY":0.00034721,"INCLINATION":97.5433,"RA_OF_ASC_NODE":359.0029,"ARG_OF_PERICENTER":144.7507,"MEAN_ANOMALY":215.3989,"EPHEMERIS_TYPE":0,"CLASSIFICATION_TYPE":"U","NORAD_CAT_ID":43182,"ELEMENT_SET_NO":999,"REV_AT_EPOCH":44547,"BSTAR":0.0014690021,"MEAN_MOTION_DOT":0.00269889,"MEAN_MOTION_DDOT":0},{"OBJECT_NAME":"STARLINK-36370","OBJECT_ID":"2026-037F","EPOCH":"2026-03-09T22:00:01.999584","MEAN_MOTION":15.81995919,"ECCENTRICITY":0.00022213,"INCLINATION":42.9987,"RA_OF_ASC_NODE":197.1458,"ARG_OF_PERICENTER":304.6032,"MEAN_ANOMALY":198.4627,"EPHEMERIS_TYPE":0,"CLASSIFICATION_TYPE":"U","NORAD_CAT_ID":67937,"ELEMENT_SET_NO":999,"REV_AT_EPOCH":323,"BSTAR":0.00026612937,"MEAN_MOTION_DOT":0.00055817,"MEAN_MOTION_DDOT":0}]
